ONEWEB-0410             
1 51622U 22012A   23250.39322821  .00000134  00000+0  31298-3 0  9998
2 51622  87.9153 207.3340 0000834  60.1169 300.0046 13.17649668 80190
ONEWEB-0411             
1 51623U 22012B   23250.36741653  .00000645  00000+0  18121-2 0  9990
2 51623  87.8818 237.5768 0002053  75.9226 284.2129 13.10373108 76512
ONEWEB-0415             
1 51624U 22012C   23250.36422374  .00000983  00000+0  27784-2 0  9997
2 51624  87.8816 237.6042 0002207  77.2511 282.8863 13.10384112 76516
ONEWEB-0416             
1 51625U 22012D   23250.37540410 -.00001730  00000+0 -49955-2 0  9998
2 51625  87.8829 237.5893 0002740 101.9946 258.1489 13.10356171 76551
ONEWEB-0422             
1 51626U 22012E   23250.40164015  .00000103  00000+0  23224-3 0  9999
2 51626  87.9147 207.3288 0002614  97.4353 262.7076 13.17652698 80301
ONEWEB-0423             
1 51627U 22012F   23250.39534244  .00000112  00000+0  25553-3 0  9990
2 51627  87.9213 207.2730 0002012  82.5877 277.5483 13.17649148 80194
ONEWEB-0425             
1 51628U 22012G   23250.38497766 -.00004507  00000+0 -12960-1 0  9997
2 51628  87.8822 237.5801 0001568  99.2739 260.8565 13.10335746 76552
ONEWEB-0428             
1 51629U 22012H   23250.36584197 -.00000193  00000+0 -59051-3 0  9992
2 51629  87.8816 237.5948 0002321  89.1774 270.9619 13.10369134 76519
